NORAD_CAT_ID,OBJECT_NAME,OBJECT_TYPE,EPOCH,MEAN_MOTION,ECCENTRICITY,INCLINATION,RA_OF_ASC_NODE,ARG_OF_PERICENTER,MEAN_ANOMALY,BSTAR,MEAN_MOTION_DOT,MEAN_MOTION_DDOT,TLE_LINE0,TLE_LINE1,TLE_LINE2,SEMIMAJOR_AXIS,PERIOD,APOGEE,PERIGEE,DECAYED
52560.0,STARLINK-3956,PAYLOAD,2022-09-09 06:00:00,15.08810995,0.0001793,53.216,93.7668,67.9835,156.8328,0.0039917,0.00063765,0.0,0 STARLINK-3956,1 52560U 22051AD  22252.25001157  .00063765  00000-0  39917-2 0  9990,2 52560  53.2160  93.7668 0001793  67.9835 156.8328 15.08810995 18800,6917.969,95.439,541.0740000000002,538.594,0.0
52560.0,STARLINK-3956,PAYLOAD,2022-09-09 14:00:01,15.08840187,0.0001926,53.2153,92.2721,75.0928,161.3005,0.00070289,0.00010916,0.0,0 STARLINK-3956,1 52560U 22051AD  22252.58334491  .00010916  00000-0  70289-3 0  9994,2 52560  53.2153  92.2721 0001926  75.0928 161.3005 15.08840187  1303,6917.88,95.438,541.077,538.4119999999998,0.0
52560.0,STARLINK-3956,PAYLOAD,2022-09-09 22:00:00,15.088296,0.0002018,53.2151,90.7773,67.5615,180.436,0.00175,0.00027665,0.0,0 STARLINK-3956,1 52560U 22051AD  22252.91667824  .00027665  00000-0  17500-2 0  9995,2 52560  53.2151  90.7773 0002018  67.5615 180.4360 15.08829600  1306,6917.9119999999975,95.438,541.173,538.381,0.0
52560.0,STARLINK-3956,PAYLOAD,2022-09-10 14:00:01,15.08874455,0.0001911,53.2149,87.7824,74.6261,196.5713,-0.0019145,-0.00030657,0.0,0 STARLINK-3956,1 52560U 22051AD  22253.58334491 -.00030657  00000-0 -19145-2 0  9994,2 52560  53.2149  87.7824 0001911  74.6261 196.5713 15.08874455  1301,6917.775,95.435,540.962,538.318,0.0
52560.0,STARLINK-3956,PAYLOAD,2022-09-10 22:00:00,15.08819458,0.0001952,53.215,86.2874,66.0914,216.7359,0.0021736,0.00034455,0.0,0 STARLINK-3956,1 52560U 22051AD  22253.91667824  .00034455  00000-0  21736-2 0  9997,2 52560  53.2150  86.2874 0001952  66.0914 216.7359 15.08819458  1300,6917.943,95.439,541.159,538.4580000000002,0.0
52560.0,STARLINK-3956,PAYLOAD,2022-09-11 14:00:01,15.08873096,0.0001835,53.2153,83.2925,72.5187,233.4961,-0.0022262,-0.00035576,0.0,0 STARLINK-3956,1 52560U 22051AD  22254.58334491 -.00035576  00000-0 -22262-2 0  9994,2 52560  53.2153  83.2925 0001835  72.5187 233.4961 15.08873096  1304,6917.779,95.435,540.914,538.375,0.0
52560.0,STARLINK-3956,PAYLOAD,2022-09-11 22:00:00,15.08815795,0.0001888,53.2154,81.7976,64.0978,253.545,0.0025811999999999,0.00041004,0.0,0 STARLINK-3956,1 52560U 22051AD  22254.91667824  .00041004  00000-0  25812-2 0  9995,2 52560  53.2154  81.7976 0001888  64.0978 253.5450 15.08815795  1304,6917.954000000002,95.439,541.125,538.513,0.0
52560.0,STARLINK-3956,PAYLOAD,2022-09-12 12:00:00,15.08816562,0.0001685,53.2158,79.1767,70.2726,177.6509,0.0019749,0.00031262,0.0,0 STARLINK-3956,1 52560U 22051AD  22255.50001157  .00031262  00000-0  19749-2 0  9999,2 52560  53.2158  79.1767 0001685  70.2726 177.6509 15.08816562 19293,6917.9519999999975,95.439,540.9830000000002,538.651,0.0
52560.0,STARLINK-3956,PAYLOAD,2022-09-12 14:00:01,15.08836427,0.0001699999999999,53.216,78.803,69.226,271.5857,-0.00011486,-2.115e-05,0.0,0 STARLINK-3956,1 52560U 22051AD  22255.58334491 -.00002115  00000-0 -11486-3 0  9995,2 52560  53.2160  78.8030 0001700  69.2260 271.5857 15.08836427  1309,6917.891,95.438,540.932,538.58,0.0
52560.0,STARLINK-3956,PAYLOAD,2022-09-12 22:00:00,15.08815609,0.0001818,53.2162,77.3081,61.5635,290.8449,0.0030483,0.00048528,0.0,0 STARLINK-3956,1 52560U 22051AD  22255.91667824  .00048528  00000-0  30483-2 0  9994,2 52560  53.2162  77.3081 0001818  61.5635 290.8449 15.08815609  1302,6917.955,95.439,541.078,538.562,0.0
52560.0,STARLINK-3956,PAYLOAD,2022-09-13 08:00:01,15.0883966,0.0001597,53.2164,75.4357,66.4998,30.4029,7.1146e-05,8.44e-06,0.0,0 STARLINK-3956,1 52560U 22051AD  22256.33334491  .00000844  00000-0  71146-4 0  9994,2 52560  53.2164  75.4357 0001597  66.4998  30.4029 15.08839660 19415,6917.880999999999,95.438,540.851,538.6419999999998,0.0
52560.0,STARLINK-3956,PAYLOAD,2022-09-13 14:00:01,15.08847669,0.0001612,53.2167,74.3138,66.8752,308.7221,-0.0010714,-0.00017302,0.0,0 STARLINK-3956,1 52560U 22051AD  22256.58334491 -.00017302  00000-0 -10714-2 0  9992,2 52560  53.2167  74.3138 0001612  66.8752 308.7221 15.08847669  1305,6917.857,95.437,540.837,538.607,0.0
52560.0,STARLINK-3956,PAYLOAD,2022-09-13 22:00:00,15.08840017,0.0001703,53.217,72.818,57.8728,329.3213,-0.00087638,-0.00014209,0.0,0 STARLINK-3956,1 52560U 22051AD  22256.91667824 -.00014209  00000-0 -87638-3 0  9991,2 52560  53.2170  72.8180 0001703  57.8728 329.3213 15.08840017  1303,6917.88,95.438,540.923,538.567,0.0
52560.0,STARLINK-3956,PAYLOAD,2022-09-14 14:00:01,15.08819643,0.0001682,53.2173,69.8214,62.6996,347.6567,0.0014805999999999,0.00023341,0.0,0 STARLINK-3956,1 52560U 22051AD  22257.58334491  .00023341  00000-0  14806-2 0  9997,2 52560  53.2173  69.8214 0001682  62.6996 347.6567 15.08819643  1303,6917.943,95.439,540.971,538.644,0.0
52560.0,STARLINK-3956,PAYLOAD,2022-09-14 22:00:00,15.08807051,0.0001781,53.217,68.3299,61.1729,0.8032,0.0031913,0.00050822,0.0,0 STARLINK-3956,1 52560U 22051AD  22257.91667824  .00050822  00000-0  31913-2 0  9995,2 52560  53.2170  68.3299 0001781  61.1729   0.8032 15.08807051  1300,6917.981,95.44,541.078,538.614,0.0
52560.0,STARLINK-3956,PAYLOAD,2022-09-15 14:00:01,15.08869787,0.000167,53.2172,65.336,67.9688,17.1749,-0.002067,-0.00033061,0.0,0 STARLINK-3956,1 52560U 22051AD  22258.58334491 -.00033061  00000-0 -20670-2 0  9996,2 52560  53.2172  65.3360 0001670  67.9688  17.1749 15.08869787  1303,6917.7890000000025,95.436,540.81,538.499,0.0
52560.0,STARLINK-3956,PAYLOAD,2022-09-15 19:59:01,15.08848736,0.0001712,53.2176,64.217,62.7925,297.3241,2.9367e-05,1.79e-06,0.0,0 STARLINK-3956,1 52560U 22051AD  22258.83265340  .00000179  00000-0  29367-4 0  9996,2 52560  53.2176  64.2170 0001712  62.7925 297.3241 15.08848736 19790,6917.854,95.437,540.903,538.534,0.0
52560.0,STARLINK-3956,PAYLOAD,2022-09-16 03:55:57,15.08840627,0.00018,53.2173,62.7303,62.9667,297.1509,2.6638e-05,1.36e-06,0.0,0 STARLINK-3956,1 52560U 22051AD  22259.16385977  .00000136  00000-0  26638-4 0  9993,2 52560  53.2173  62.7303 0001800  62.9667 297.1509 15.08840627 19843,6917.878000000002,95.438,540.989,538.498,0.0
52560.0,STARLINK-3956,PAYLOAD,2022-09-16 07:06:43,15.08840503,0.0001793,53.2173,62.1357,63.3696,296.748,2.3452e-05,8.5e-07,0.0,0 STARLINK-3956,1 52560U 22051AD  22259.29633986  .00000085  00000-0  23452-4 0  9997,2 52560  53.2173  62.1357 0001793  63.3696 296.7480 15.08840503 19794,6917.879,95.438,540.984,538.503,0.0
52560.0,STARLINK-3956,PAYLOAD,2022-09-16 19:49:49,15.08832726,0.0001862,53.2173,59.7567,63.4893,296.629,1.2244000000000003e-05,-9.3e-07,0.0,0 STARLINK-3956,1 52560U 22051AD  22259.82626572 -.00000093  00000-0  12244-4 0  9996,2 52560  53.2173  59.7567 0001862  63.4893 296.6290 15.08832726 19871,6917.903,95.438,541.056,538.48,0.0
52560.0,STARLINK-3956,PAYLOAD,2022-09-17 05:22:08,15.08830066,0.0001805,53.2176,57.9725,63.1515,296.9662,-4.556e-05,-1.013e-05,0.0,0 STARLINK-3956,1 52560U 22051AD  22260.22371131 -.00001013  00000-0 -45560-4 0  9991,2 52560  53.2176  57.9725 0001805  63.1515 296.9662 15.08830066 19933,6917.911,95.438,541.024,538.5269999999998,0.0
52560.0,STARLINK-3956,PAYLOAD,2022-09-17 18:05:13,15.08836385,0.0001813,53.2177,55.5935,63.1334,296.9843,7.3283000000000015e-06,-1.71e-06,0.0,0 STARLINK-3956,1 52560U 22051AD  22260.75362760 -.00000171  00000-0  73283-5 0  9994,2 52560  53.2177  55.5935 0001813  63.1334 296.9843 15.08836385 20011,6917.891,95.438,541.011,538.502,0.0
52560.0,STARLINK-3956,PAYLOAD,2022-09-18 03:37:31,15.08840915,0.000182,53.2177,53.8093,64.4338,295.6842,5.5212e-05,5.91e-06,0.0,0 STARLINK-3956,1 52560U 22051AD  22261.15106338  .00000591  00000-0  55212-4 0  9992,2 52560  53.2177  53.8093 0001820  64.4338 295.6842 15.08840915 20146,6917.878000000002,95.437,541.002,538.484,0.0
52560.0,STARLINK-3956,PAYLOAD,2022-09-18 05:12:54,15.0884122,0.0001819,53.2177,53.512,64.1982,295.9197,5.7003e-05,6.19e-06,0.0,0 STARLINK-3956,1 52560U 22051AD  22261.21730313  .00000619  00000-0  57003-4 0  9996,2 52560  53.2177  53.5120 0001819  64.1982 295.9197 15.08841220 20083,6917.877,95.437,541.0,538.4830000000002,0.0
52560.0,STARLINK-3956,PAYLOAD,2022-09-18 19:31:23,15.08834179,0.0001565999999999,53.2178,50.8358,72.1996,287.9167,4.9862e-05,5.06e-06,0.0,0 STARLINK-3956,1 52560U 22051AD  22261.81346611  .00000506  00000-0  49862-4 0  9995,2 52560  53.2178  50.8358 0001566  72.1996 287.9167 15.08834179 20173,6917.898,95.438,540.847,538.68,0.0
52560.0,STARLINK-3956,PAYLOAD,2022-09-19 11:25:14,15.0884286,0.0001901,53.2182,47.8636,54.7841,305.3328,9.881e-05,1.285e-05,0.0,0 STARLINK-3956,1 52560U 22051AD  22262.47586079  .00001285  00000-0  98810-4 0  9994,2 52560  53.2182  47.8636 0001901  54.7841 305.3328 15.08842860 20340,6917.871999999999,95.437,541.052,538.422,0.0
52560.0,STARLINK-3956,PAYLOAD,2022-09-20 11:16:01,15.08852403,0.0003078999999999,53.2179,43.409,39.5335,320.5881,-0.00021468,-3.705e-05,0.0,0 STARLINK-3956,1 52560U 22051AD  22263.46946649 -.00003705  00000-0 -21468-3 0  9992,2 52560  53.2179  43.4090 0003079  39.5335 320.5881 15.08852403 20492,6917.842,95.437,541.837,537.577,0.0
52560.0,STARLINK-3956,PAYLOAD,2022-09-20 16:02:11,15.08836109,0.0001606,53.218,42.5091,65.5483,294.5677,-8.871799999999999e-05,-1.7e-05,0.0,0 STARLINK-3956,1 52560U 22051AD  22263.66818742 -.00001700  00000-0 -88718-4 0  9991,2 52560  53.2180  42.5091 0001606  65.5483 294.5677 15.08836109 20456,6917.892,95.438,540.868,538.646,0.0
52560.0,STARLINK-3956,PAYLOAD,2022-09-21 11:06:48,15.08836733,0.0001796,53.2181,38.9418,59.0015,301.1154,-4.9605e-05,-1.077e-05,0.0,0 STARLINK-3956,1 52560U 22051AD  22264.46306611 -.00001077  00000-0 -49605-4 0  9996,2 52560  53.2181  38.9418 0001796  59.0015 301.1154 15.08836733 20647,6917.89,95.438,540.998,538.513,0.0
